{
    "links": {
        "self": "http://www.neowsapp.com/rest/v1/neo/3696154?api_key=iIulBulltgU6a56xZRHN4H3l9WmuAYTsLGpBGhQ2"
    },
    "id": "3696154",
    "neo_reference_id": "3696154",
    "name": "(2014 VG10)",
    "designation": "2014 VG10",
    "nasa_jpl_url": "http://ssd.jpl.nasa.gov/sbdb.cgi?sstr=3696154",
    "absolute_magnitude_h": 26.2,
    "estimated_diameter": {
        "kilometers": {
            "estimated_diameter_min": 0.0152951935,
            "estimated_diameter_max": 0.0342010925
        },
        "meters": {
            "estimated_diameter_min": 15.2951935344,
            "estimated_diameter_max": 34.201092472
        },
        "miles": {
            "estimated_diameter_min": 0.0095039897,
            "estimated_diameter_max": 0.021251567
        },
        "feet": {
            "estimated_diameter_min": 50.1810827555,
            "estimated_diameter_max": 112.2083122258
        }
    },
    "is_potentially_hazardous_asteroid": false,
    "close_approach_data": [
        {
            "close_approach_date": "2014-11-26",
            "close_approach_date_full": "2014-Nov-26 10:09",
            "epoch_date_close_approach": 1416996540000,
            "relative_velocity": {
                "kilometers_per_second": "8.3140496963",
                "kilometers_per_hour": "29930.5789066828",
                "miles_per_hour": "18597.6977656552"
            },
            "miss_distance": {
                "astronomical": "0.0397995251",
                "lunar": "15.4820152639",
                "kilometers": "5953924.181971537",
                "miles": "3699596.9340877306"
            },
            "orbiting_body": "Earth"
        },
        {
            "close_approach_date": "2127-02-24",
            "close_approach_date_full": "2127-Feb-24 07:18",
            "epoch_date_close_approach": 4959127080000,
            "relative_velocity": {
                "kilometers_per_second": "18.0004541456",
                "kilometers_per_hour": "64801.634924178",
                "miles_per_hour": "40265.2158783038"
            },
            "miss_distance": {
                "astronomical": "0.3691288583",
                "lunar": "143.5911258787",
                "kilometers": "55220890.957211821",
                "miles": "34312670.5411362898"
            },
            "orbiting_body": "Earth"
        },
        {
            "close_approach_date": "2131-11-07",
            "close_approach_date_full": "2131-Nov-07 11:22",
            "epoch_date_close_approach": 5107490520000,
            "relative_velocity": {
                "kilometers_per_second": "15.0829744503",
                "kilometers_per_hour": "54298.7080209767",
                "miles_per_hour": "33739.1055478119"
            },
            "miss_distance": {
                "astronomical": "0.2484717426",
                "lunar": "96.6555078714",
                "kilometers": "37170843.448148262",
                "miles": "23096891.1016075356"
            },
            "orbiting_body": "Earth"
        },
        {
            "close_approach_date": "2188-02-09",
            "close_approach_date_full": "2188-Feb-09 07:53",
            "epoch_date_close_approach": 6882825180000,
            "relative_velocity": {
                "kilometers_per_second": "11.1766841569",
                "kilometers_per_hour": "40236.062964907",
                "miles_per_hour": "25001.1247906112"
            },
            "miss_distance": {
                "astronomical": "0.1699358214",
                "lunar": "66.1050345246",
                "kilometers": "25422036.918140418",
                "miles": "15796521.2465090484"
            },
            "orbiting_body": "Earth"
        },
        {
            "close_approach_date": "2192-10-24",
            "close_approach_date_full": "2192-Oct-24 18:27",
            "epoch_date_close_approach": 7031384820000,
            "relative_velocity": {
                "kilometers_per_second": "22.1484348676",
                "kilometers_per_hour": "79734.3655233578",
                "miles_per_hour": "49543.8339553331"
            },
            "miss_distance": {
                "astronomical": "0.4881352706",
                "lunar": "189.8846202634",
                "kilometers": "73023996.753633622",
                "miles": "45375007.5156511036"
            },
            "orbiting_body": "Earth"
        }
    ],
    "orbital_data": {
        "orbit_id": "9",
        "orbit_determination_date": "2017-04-06 08:37:31",
        "first_observation_date": "2014-11-15",
        "last_observation_date": "2014-11-24",
        "data_arc_in_days": 9,
        "observations_used": 30,
        "orbit_uncertainty": "8",
        "minimum_orbit_intersection": ".0351081",
        "jupiter_tisserand_invariant": "3.911",
        "epoch_osculation": "2456981.5",
        "eccentricity": ".4641103536792776",
        "semi_major_axis": "1.812222978651394",
        "inclination": "5.822742304161572",
        "ascending_node_longitude": "230.8442632826561",
        "orbital_period": "891.0783175491466",
        "perihelion_distance": ".9711515310837813",
        "perihelion_argument": "223.8062358250786",
        "aphelion_distance": "2.653294426219006",
        "perihelion_time": "2457012.511388626376",
        "mean_anomaly": "347.4712472679153",
        "mean_motion": ".404004892622858",
        "equinox": "J2000",
        "orbit_class": {
            "orbit_class_type": "APO",
            "orbit_class_description": "Near-Earth asteroid orbits which cross the Earth’s orbit similar to that of 1862 Apollo",
            "orbit_class_range": "a (semi-major axis) > 1.0 AU; q (perihelion) < 1.017 AU"
        }
    },
    "is_sentry_object": false
}